{"type": "FeatureCollection", "features": [ {"type": "Feature", "properties": {"norad_id": 34823, "name": "COSMOS 2251 DEB", "group": "cosmos-2251-debris", "lat": 58.901193522073925, "lon": -113.75441425299303, "alt_km": 649.6297345623807, "timestamp": "2025-12-16T19:34:24.663831+00:00", "meta": {"OBJECT_NAME": "COSMOS 2251 DEB", "OBJECT_ID": "1993-036ABN", "EPOCH": "2025-12-15T06:43:32.774880", "MEAN_MOTION": 14.54950016, "ECCENTRICITY": 0.01545068, "INCLINATION": 74.0412, "RA_OF_ASC_NODE": 97.4704, "ARG_OF_PERICENTER": 181.6256, "MEAN_ANOMALY": 178.4428, "EPHEMERIS_TYPE": 0, "CLASSIFICATION_TYPE": "U", "NORAD_CAT_ID": 34823, "ELEMENT_SET_NO": 999, "REV_AT_EPOCH": 88418, "BSTAR": 0.00053820564, "MEAN_MOTION_DOT": 2.686e-05, "MEAN_MOTION_DDOT": 0}, "tle": {"line1": "1 34823U 93036ABN 25349.28024045  .00002686  00000+0  53821-3 0  9992", "line2": "2 34823  74.0412  97.4704 0154506 181.6256 178.4428 14.54950016884189"}}, "geometry": {"type": "Point", "coordinates": [-113.75441425299303, 58.901193522073925]}}, {"type": "Feature", "properties": {"norad_id": 34845, "name": "COSMOS 2251 DEB", "group": "cosmos-2251-debris", "lat": -44.1532602224654, "lon": 124.59288077596231, "alt_km": 729.9300092745507, "timestamp": "2025-12-16T19:34:24.663840+00:00", "meta": {"OBJECT_NAME": "COSMOS 2251 DEB", "OBJECT_ID": "1993-036ABP", "EPOCH": "2025-12-15T18:52:42.405888", "MEAN_MOTION": 14.45864991, "ECCENTRICITY": 0.00224498, "INCLINATION": 74.0238, "RA_OF_ASC_NODE": 142.662, "ARG_OF_PERICENTER": 303.0339, "MEAN_ANOMALY": 56.8662, "EPHEMERIS_TYPE": 0, "CLASSIFICATION_TYPE": "U", "NORAD_CAT_ID": 34845, "ELEMENT_SET_NO": 999, "REV_AT_EPOCH": 87510, "BSTAR": 0.00028097651, "MEAN_MOTION_DOT": 9.74e-06, "MEAN_MOTION_DDOT": 0}, "tle": {"line1": "1 34845U 93036ABP 25349.78660192  .00000974  00000+0  28098-3 0  9996", "line2": "2 34845  74.0238 142.6620 0022449 303.0339  56.8662 14.45864991875108"}}, "geometry": {"type": "Point", "coordinates": [124.59288077596231, -44.1532602224654]}}, {"type": "Feature", "properties": {"norad_id": 34846, "name": "COSMOS 2251 DEB", "group": "cosmos-2251-debris", "lat": -73.81663435456143, "lon": 173.5152528631726, "alt_km": 728.9953435974794, "timestamp": "2025-12-16T19:34:24.663851+00:00", "meta": {"OBJECT_NAME": "COSMOS 2251 DEB", "OBJECT_ID": "1993-036ABQ", "EPOCH": "2025-12-15T19:05:23.449920", "MEAN_MOTION": 14.47235054, "ECCENTRICITY": 0.00261482, "INCLINATION": 74.031, "RA_OF_ASC_NODE": 256.0607, "ARG_OF_PERICENTER": 322.0428, "MEAN_ANOMALY": 37.8887, "EPHEMERIS_TYPE": 0, "CLASSIFICATION_TYPE": "U", "NORAD_CAT_ID": 34846, "ELEMENT_SET_NO": 999, "REV_AT_EPOCH": 87448, "BSTAR": 0.00055747484, "MEAN_MOTION_DOT": 2.019e-05, "MEAN_MOTION_DDOT": 0}, "tle": {"line1": "1 34846U 93036ABQ 25349.79541030  .00002019  00000+0  55747-3 0  9990", "line2": "2 34846  74.0310 256.0607 0026148 322.0428  37.8887 14.47235054874487"}}, "geometry": {"type": "Point", "coordinates": [173.5152528631726, -73.81663435456143]}}, {"type": "Feature", "properties": {"norad_id": 34852, "name": "COSMOS 2251 DEB", "group": "cosmos-2251-debris", "lat": -8.760559365995258, "lon": 78.00685282850091, "alt_km": 783.4989599218297, "timestamp": "2025-12-16T19:34:24.663862+00:00", "meta": {"OBJECT_NAME": "COSMOS 2251 DEB", "OBJECT_ID": "1993-036ABW", "EPOCH": "2025-12-14T11:33:36.116064", "MEAN_MOTION": 14.37006693, "ECCENTRICITY": 0.00162936, "INCLINATION": 74.033, "RA_OF_ASC_NODE": 259.7687, "ARG_OF_PERICENTER": 2.5812, "MEAN_ANOMALY": 357.5423, "EPHEMERIS_TYPE": 0, "CLASSIFICATION_TYPE": "U", "NORAD_CAT_ID": 34852, "ELEMENT_SET_NO": 999, "REV_AT_EPOCH": 87559, "BSTAR": 0.0001528022, "MEAN_MOTION_DOT": 4.27e-06, "MEAN_MOTION_DDOT": 0}, "tle": {"line1": "1 34852U 93036ABW 25348.48166801  .00000427  00000+0  15280-3 0  9990", "line2": "2 34852  74.0330 259.7687 0016293   2.5812 357.5423 14.37006693875596"}}, "geometry": {"type": "Point", "coordinates": [78.00685282850091, -8.760559365995258]}}, {"type": "Feature", "properties": {"norad_id": 34854, "name": "COSMOS 2251 DEB", "group": "cosmos-2251-debris", "lat": -43.49174853237049, "lon": 134.82714144662148, "alt_km": 618.0679807330116, "timestamp": "2025-12-16T19:34:24.663873+00:00", "meta": {"OBJECT_NAME": "COSMOS 2251 DEB", "OBJECT_ID": "1993-036ABY", "EPOCH": "2025-12-15T17:45:50.311296", "MEAN_MOTION": 14.76656012, "ECCENTRICITY": 0.00661077, "INCLINATION": 74.0282, "RA_OF_ASC_NODE": 152.7005, "ARG_OF_PERICENTER": 263.7765, "MEAN_ANOMALY": 95.5876, "EPHEMERIS_TYPE": 0, "CLASSIFICATION_TYPE": "U", "NORAD_CAT_ID": 34854, "ELEMENT_SET_NO": 999, "REV_AT_EPOCH": 71926, "BSTAR": 0.00049862393, "MEAN_MOTION_DOT": 3.579e-05, "MEAN_MOTION_DDOT": 0}, "tle": {"line1": "1 34854U 93036ABY 25349.74016564  .00003579  00000+0  49862-3 0  9996", "line2": "2 34854  74.0282 152.7005 0066107 263.7765  95.5876 14.76656012719268"}}, "geometry": {"type": "Point", "coordinates": [134.82714144662148, -43.49174853237049]}}, {"type": "Feature", "properties": {"norad_id": 34856, "name": "COSMOS 2251 DEB", "group": "cosmos-2251-debris", "lat": 71.08560655943242, "lon": -160.42263656082, "alt_km": 549.4447645446926, "timestamp": "2025-12-16T19:34:24.663883+00:00", "meta": {"OBJECT_NAME": "COSMOS 2251 DEB", "OBJECT_ID": "1993-036ACA", "EPOCH": "2025-12-15T08:23:09.320352", "MEAN_MOTION": 15.0621822, "ECCENTRICITY": 0.00326007, "INCLINATION": 73.9961, "RA_OF_ASC_NODE": 79.4818, "ARG_OF_PERICENTER": 217.4103, "MEAN_ANOMALY": 216.3401, "EPHEMERIS_TYPE": 0, "CLASSIFICATION_TYPE": "U", "NORAD_CAT_ID": 34856, "ELEMENT_SET_NO": 999, "REV_AT_EPOCH": 89151, "BSTAR": 0.0012135652, "MEAN_MOTION_DOT": 0.00018014, "MEAN_MOTION_DDOT": 0}, "tle": {"line1": "1 34856U 93036ACA 25349.34941343  .00018014  00000+0  12136-2 0  9999", "line2": "2 34856  73.9961  79.4818 0032600 217.4103 216.3401 15.06218220891517"}}, "geometry": {"type": "Point", "coordinates": [-160.42263656082, 71.08560655943242]}}, {"type": "Feature", "properties": {"norad_id": 34857, "name": "COSMOS 2251 DEB", "group": "cosmos-2251-debris", "lat": 41.17596586738282, "lon": -95.4649467257072, "alt_km": 689.4365652976712, "timestamp": "2025-12-16T19:34:24.663893+00:00", "meta": {"OBJECT_NAME": "COSMOS 2251 DEB", "OBJECT_ID": "1993-036ACB", "EPOCH": "2025-12-15T00:41:55.180032", "MEAN_MOTION": 14.58919291, "ECCENTRICITY": 0.00657675, "INCLINATION": 74.0154, "RA_OF_ASC_NODE": 102.4616, "ARG_OF_PERICENTER": 226.5367, "MEAN_ANOMALY": 252.0718, "EPHEMERIS_TYPE": 0, "CLASSIFICATION_TYPE": "U", "NORAD_CAT_ID": 34857, "ELEMENT_SET_NO": 999, "REV_AT_EPOCH": 87934, "BSTAR": 0.00075958271, "MEAN_MOTION_DOT": 3.639e-05, "MEAN_MOTION_DDOT": 0}, "tle": {"line1": "1 34857U 93036ACB 25349.02911088  .00003639  00000+0  75958-3 0  9997", "line2": "2 34857  74.0154 102.4616 0065767 226.5367 252.0718 14.58919291879347"}}, "geometry": {"type": "Point", "coordinates": [-95.4649467257072, 41.17596586738282]}}, {"type": "Feature", "properties": {"norad_id": 34859, "name": "COSMOS 2251 DEB", "group": "cosmos-2251-debris", "lat": -13.133726161222272, "lon": 155.00881656684865, "alt_km": 525.468633469638, "timestamp": "2025-12-16T19:34:24.663904+00:00", "meta": {"OBJECT_NAME": "COSMOS 2251 DEB", "OBJECT_ID": "1993-036ACD", "EPOCH": "2025-12-15T22:14:17.926368", "MEAN_MOTION": 15.15289529, "ECCENTRICITY": 0.00022022, "INCLINATION": 74.0287, "RA_OF_ASC_NODE": 333.0272, "ARG_OF_PERICENTER": 3.5984, "MEAN_ANOMALY": 22.5088, "EPHEMERIS_TYPE": 0, "CLASSIFICATION_TYPE": "U", "NORAD_CAT_ID": 34859, "ELEMENT_SET_NO": 999, "REV_AT_EPOCH": 88407, "BSTAR": 0.0036038076, "MEAN_MOTION_DOT": 0.00068478, "MEAN_MOTION_DDOT": 0}, "tle": {"line1": "1 34859U 93036ACD 25349.92659637  .00068478  00000+0  36038-2 0  9994", "line2": "2 34859  74.0287 333.0272 0002202   3.5984  22.5088 15.15289529884073"}}, "geometry": {"type": "Point", "coordinates": [155.00881656684865, -13.133726161222272]}}, {"type": "Feature", "properties": {"norad_id": 34861, "name": "COSMOS 2251 DEB", "group": "cosmos-2251-debris", "lat": -71.98020141449368, "lon": -19.236191191803147, "alt_km": 567.4351497440775, "timestamp": "2025-12-16T19:34:24.663914+00:00", "meta": {"OBJECT_NAME": "COSMOS 2251 DEB", "OBJECT_ID": "1993-036ACF", "EPOCH": "2025-12-15T22:20:53.043936", "MEAN_MOTION": 15.02780242, "ECCENTRICITY": 0.00073366, "INCLINATION": 74.019, "RA_OF_ASC_NODE": 44.3305, "ARG_OF_PERICENTER": 37.28, "MEAN_ANOMALY": 138.6297, "EPHEMERIS_TYPE": 0, "CLASSIFICATION_TYPE": "U", "NORAD_CAT_ID": 34861, "ELEMENT_SET_NO": 999, "REV_AT_EPOCH": 88140, "BSTAR": 0.0017236131, "MEAN_MOTION_DOT": 0.00023113, "MEAN_MOTION_DDOT": 0}, "tle": {"line1": "1 34861U 93036ACF 25349.93116949  .00023113  00000+0  17236-2 0  9998", "line2": "2 34861  74.0190  44.3305 0007336  37.2800 138.6297 15.02780242881401"}}, "geometry": {"type": "Point", "coordinates": [-19.236191191803147, -71.98020141449368]}}, {"type": "Feature", "properties": {"norad_id": 34874, "name": "COSMOS 2251 DEB", "group": "cosmos-2251-debris", "lat": -22.566057344116516, "lon": 59.45021562671119, "alt_km": 790.1903903911852, "timestamp": "2025-12-16T19:34:24.663925+00:00", "meta": {"OBJECT_NAME": "COSMOS 2251 DEB", "OBJECT_ID": "1993-036ACM", "EPOCH": "2025-12-15T15:57:33.247296", "MEAN_MOTION": 14.36325201, "ECCENTRICITY": 0.00508248, "INCLINATION": 74.0399, "RA_OF_ASC_NODE": 68.3924, "ARG_OF_PERICENTER": 92.7738, "MEAN_ANOMALY": 57.2671, "EPHEMERIS_TYPE": 0, "CLASSIFICATION_TYPE": "U", "NORAD_CAT_ID": 34874, "ELEMENT_SET_NO": 999, "REV_AT_EPOCH": 87086, "BSTAR": 0.00056877807, "MEAN_MOTION_DOT": 1.663e-05, "MEAN_MOTION_DDOT": 0}, "tle": {"line1": "1 34874U 93036ACM 25349.66496814  .00001663  00000+0  56878-3 0  9996", "line2": "2 34874  74.0399  68.3924 0050824  92.7738  57.2671 14.36325201870861"}}, "geometry": {"type": "Point", "coordinates": [59.45021562671119, -22.566057344116516]}}]}